{"type": "FeatureCollection", "features": [ {"type": "Feature", "properties": {"norad_id": 66777, "name": "TRANSPORTER-15DR", "group": "last-30-days", "lat": 82.01497037304831, "lon": -42.048609724219666, "alt_km": 499.3129237163939, "timestamp": "2025-12-23T11:34:46.946728+00:00", "meta": {"OBJECT_NAME": "TRANSPORTER-15DR", "OBJECT_ID": "2025-276DR", "EPOCH": "2025-12-23T03:16:01.653600", "MEAN_MOTION": 15.18921612, "ECCENTRICITY": 0.0003507, "INCLINATION": 97.447, "RA_OF_ASC_NODE": 68.7858, "ARG_OF_PERICENTER": 111.437, "MEAN_ANOMALY": 248.7239, "EPHEMERIS_TYPE": 0, "CLASSIFICATION_TYPE": "U", "NORAD_CAT_ID": 66777, "ELEMENT_SET_NO": 999, "REV_AT_EPOCH": 370, "BSTAR": 0.00062542, "MEAN_MOTION_DOT": 0.00013004, "MEAN_MOTION_DDOT": 0}, "tle": {"line1": "1 66777U 25276DR  25357.13613025  .00013004  00000+0  62542-3 0  9997", "line2": "2 66777  97.4470  68.7858 0003507 111.4370 248.7239 15.18921612  3701"}}, "geometry": {"type": "Point", "coordinates": [-42.048609724219666, 82.01497037304831]}}, {"type": "Feature", "properties": {"norad_id": 66778, "name": "TRANSPORTER-15DS", "group": "last-30-days", "lat": -65.01910739725429, "lon": 85.3387577926143, "alt_km": 523.4716340666373, "timestamp": "2025-12-23T11:34:46.946738+00:00", "meta": {"OBJECT_NAME": "TRANSPORTER-15DS", "OBJECT_ID": "2025-276DS", "EPOCH": "2025-12-18T19:26:21.991200", "MEAN_MOTION": 15.16535337, "ECCENTRICITY": 0.00032319, "INCLINATION": 97.4427, "RA_OF_ASC_NODE": 64.4586, "ARG_OF_PERICENTER": 41.3734, "MEAN_ANOMALY": 318.7744, "EPHEMERIS_TYPE": 0, "CLASSIFICATION_TYPE": "U", "NORAD_CAT_ID": 66778, "ELEMENT_SET_NO": 999, "REV_AT_EPOCH": 304, "BSTAR": 0.00025483693, "MEAN_MOTION_DOT": 4.904e-05, "MEAN_MOTION_DDOT": 0}, "tle": {"line1": "1 66778U 25276DS  25352.80997675  .00004904  00000+0  25484-3 0  9996", "line2": "2 66778  97.4427  64.4586 0003231  41.3734 318.7744 15.16535337  3043"}}, "geometry": {"type": "Point", "coordinates": [85.3387577926143, -65.01910739725429]}}, {"type": "Feature", "properties": {"norad_id": 66791, "name": "STARLINK-35867", "group": "last-30-days", "lat": -1.990884882084665, "lon": -174.73517856098312, "alt_km": 415.1895069622824, "timestamp": "2025-12-23T11:34:46.946750+00:00", "meta": {"OBJECT_NAME": "STARLINK-35867", "OBJECT_ID": "2025-278A", "EPOCH": "2025-12-23T04:00:01.998720", "MEAN_MOTION": 15.50575828, "ECCENTRICITY": 0.0001954, "INCLINATION": 42.9996, "RA_OF_ASC_NODE": 189.2503, "ARG_OF_PERICENTER": 261.7494, "MEAN_ANOMALY": 130.4808, "EPHEMERIS_TYPE": 0, "CLASSIFICATION_TYPE": "U", "NORAD_CAT_ID": 66791, "ELEMENT_SET_NO": 999, "REV_AT_EPOCH": 463, "BSTAR": -0.00036531, "MEAN_MOTION_DOT": -0.00021712, "MEAN_MOTION_DDOT": 0}, "tle": {"line1": "1 66791U 25278A   25357.16668980 -.00021712  00000+0 -36531-3 0  9994", "line2": "2 66791  42.9996 189.2503 0001954 261.7494 130.4808 15.50575828  4633"}}, "geometry": {"type": "Point", "coordinates": [-174.73517856098312, -1.990884882084665]}}, {"type": "Feature", "properties": {"norad_id": 66792, "name": "STARLINK-35990", "group": "last-30-days", "lat": -0.6927283345471608, "lon": -173.34529857640567, "alt_km": 415.1710902294835, "timestamp": "2025-12-23T11:34:46.946759+00:00", "meta": {"OBJECT_NAME": "STARLINK-35990", "OBJECT_ID": "2025-278B", "EPOCH": "2025-12-23T04:00:01.998720", "MEAN_MOTION": 15.50525378, "ECCENTRICITY": 0.0001715, "INCLINATION": 42.9994, "RA_OF_ASC_NODE": 189.2457, "ARG_OF_PERICENTER": 255.9583, "MEAN_ANOMALY": 138.2098, "EPHEMERIS_TYPE": 0, "CLASSIFICATION_TYPE": "U", "NORAD_CAT_ID": 66792, "ELEMENT_SET_NO": 999, "REV_AT_EPOCH": 463, "BSTAR": 0.00093859, "MEAN_MOTION_DOT": 0.00055004, "MEAN_MOTION_DDOT": 0}, "tle": {"line1": "1 66792U 25278B   25357.16668980  .00055004  00000+0  93859-3 0  9990", "line2": "2 66792  42.9994 189.2457 0001715 255.9583 138.2098 15.50525378  4631"}}, "geometry": {"type": "Point", "coordinates": [-173.34529857640567, -0.6927283345471608]}}, {"type": "Feature", "properties": {"norad_id": 66793, "name": "STARLINK-36051", "group": "last-30-days", "lat": 1.9321272189337804, "lon": -170.53729139792466, "alt_km": 414.98801605168956, "timestamp": "2025-12-23T11:34:46.946768+00:00", "meta": {"OBJECT_NAME": "STARLINK-36051", "OBJECT_ID": "2025-278C", "EPOCH": "2025-12-23T04:00:01.998720", "MEAN_MOTION": 15.5058858, "ECCENTRICITY": 0.000168, "INCLINATION": 42.9995, "RA_OF_ASC_NODE": 189.2356, "ARG_OF_PERICENTER": 253.2064, "MEAN_ANOMALY": 144.783, "EPHEMERIS_TYPE": 0, "CLASSIFICATION_TYPE": "U", "NORAD_CAT_ID": 66793, "ELEMENT_SET_NO": 999, "REV_AT_EPOCH": 453, "BSTAR": -0.0010595, "MEAN_MOTION_DOT": -0.00062032, "MEAN_MOTION_DDOT": 0}, "tle": {"line1": "1 66793U 25278C   25357.16668980 -.00062032  00000+0 -10595-2 0  9997", "line2": "2 66793  42.9995 189.2356 0001680 253.2064 144.7830 15.50588580  4536"}}, "geometry": {"type": "Point", "coordinates": [-170.53729139792466, 1.9321272189337804]}}, {"type": "Feature", "properties": {"norad_id": 66794, "name": "STARLINK-36062", "group": "last-30-days", "lat": 0.6166477304955826, "lon": -171.94482236695376, "alt_km": 415.00653921852154, "timestamp": "2025-12-23T11:34:46.946777+00:00", "meta": {"OBJECT_NAME": "STARLINK-36062", "OBJECT_ID": "2025-278D", "EPOCH": "2025-12-23T04:00:01.998720", "MEAN_MOTION": 15.5052187, "ECCENTRICITY": 0.0002159, "INCLINATION": 42.9995, "RA_OF_ASC_NODE": 189.2409, "ARG_OF_PERICENTER": 260.2988, "MEAN_ANOMALY": 135.7885, "EPHEMERIS_TYPE": 0, "CLASSIFICATION_TYPE": "U", "NORAD_CAT_ID": 66794, "ELEMENT_SET_NO": 999, "REV_AT_EPOCH": 463, "BSTAR": 0.00094554, "MEAN_MOTION_DOT": 0.00055411, "MEAN_MOTION_DDOT": 0}, "tle": {"line1": "1 66794U 25278D   25357.16668980  .00055411  00000+0  94554-3 0  9997", "line2": "2 66794  42.9995 189.2409 0002159 260.2988 135.7885 15.50521870  4631"}}, "geometry": {"type": "Point", "coordinates": [-171.94482236695376, 0.6166477304955826]}}, {"type": "Feature", "properties": {"norad_id": 66795, "name": "STARLINK-36047", "group": "last-30-days", "lat": 3.227095864920752, "lon": -169.14657836450593, "alt_km": 414.8236450265131, "timestamp": "2025-12-23T11:34:46.946786+00:00", "meta": {"OBJECT_NAME": "STARLINK-36047", "OBJECT_ID": "2025-278E", "EPOCH": "2025-12-23T04:00:01.998720", "MEAN_MOTION": 15.50530362, "ECCENTRICITY": 0.0001682, "INCLINATION": 42.9995, "RA_OF_ASC_NODE": 189.232, "ARG_OF_PERICENTER": 252.2556, "MEAN_ANOMALY": 147.6621, "EPHEMERIS_TYPE": 0, "CLASSIFICATION_TYPE": "U", "NORAD_CAT_ID": 66795, "ELEMENT_SET_NO": 999, "REV_AT_EPOCH": 453, "BSTAR": 0.0008321, "MEAN_MOTION_DOT": 0.00048693, "MEAN_MOTION_DDOT": 0}, "tle": {"line1": "1 66795U 25278E   25357.16668980  .00048693  00000+0  83210-3 0  9999", "line2": "2 66795  42.9995 189.2320 0001682 252.2556 147.6621 15.50530362  4531"}}, "geometry": {"type": "Point", "coordinates": [-169.14657836450593, 3.227095864920752]}}, {"type": "Feature", "properties": {"norad_id": 66796, "name": "STARLINK-35964", "group": "last-30-days", "lat": 8.805753312614328, "lon": -4.4085987300279355, "alt_km": 326.1330540202898, "timestamp": "2025-12-23T11:34:46.946796+00:00", "meta": {"OBJECT_NAME": "STARLINK-35964", "OBJECT_ID": "2025-278F", "EPOCH": "2025-12-23T00:15:52.445088", "MEAN_MOTION": 15.80936741, "ECCENTRICITY": 0.0002245, "INCLINATION": 42.9914, "RA_OF_ASC_NODE": 188.0511, "ARG_OF_PERICENTER": 289.911, "MEAN_ANOMALY": 70.152, "EPHEMERIS_TYPE": 0, "CLASSIFICATION_TYPE": "U", "NORAD_CAT_ID": 66796, "ELEMENT_SET_NO": 999, "REV_AT_EPOCH": 347, "BSTAR": 0.0019554, "MEAN_MOTION_DOT": 0.00410276, "MEAN_MOTION_DDOT": 0}, "tle": {"line1": "1 66796U 25278F   25357.01102367  .00410276  00000+0  19554-2 0  9995", "line2": "2 66796  42.9914 188.0511 0002245 289.9110  70.1520 15.80936741  3475"}}, "geometry": {"type": "Point", "coordinates": [-4.4085987300279355, 8.805753312614328]}}, {"type": "Feature", "properties": {"norad_id": 66797, "name": "STARLINK-36099", "group": "last-30-days", "lat": 5.844538487127565, "lon": -166.31977472551642, "alt_km": 414.5773342015136, "timestamp": "2025-12-23T11:34:46.946806+00:00", "meta": {"OBJECT_NAME": "STARLINK-36099", "OBJECT_ID": "2025-278G", "EPOCH": "2025-12-23T04:00:01.998720", "MEAN_MOTION": 15.50591636, "ECCENTRICITY": 0.0001858, "INCLINATION": 42.9997, "RA_OF_ASC_NODE": 189.2212, "ARG_OF_PERICENTER": 254.6995, "MEAN_ANOMALY": 149.0414, "EPHEMERIS_TYPE": 0, "CLASSIFICATION_TYPE": "U", "NORAD_CAT_ID": 66797, "ELEMENT_SET_NO": 999, "REV_AT_EPOCH": 469, "BSTAR": -0.0011682, "MEAN_MOTION_DOT": -0.00068313, "MEAN_MOTION_DDOT": 0}, "tle": {"line1": "1 66797U 25278G   25357.16668980 -.00068313  00000+0 -11682-2 0  9997", "line2": "2 66797  42.9997 189.2212 0001858 254.6995 149.0414 15.50591636  4697"}}, "geometry": {"type": "Point", "coordinates": [-166.31977472551642, 5.844538487127565]}}, {"type": "Feature", "properties": {"norad_id": 66798, "name": "STARLINK-36041", "group": "last-30-days", "lat": 7.129554824262998, "lon": -164.9167970181391, "alt_km": 414.2853542878265, "timestamp": "2025-12-23T11:34:46.946818+00:00", "meta": {"OBJECT_NAME": "STARLINK-36041", "OBJECT_ID": "2025-278H", "EPOCH": "2025-12-23T04:00:01.998720", "MEAN_MOTION": 15.50518579, "ECCENTRICITY": 0.0002076, "INCLINATION": 42.9996, "RA_OF_ASC_NODE": 189.2166, "ARG_OF_PERICENTER": 262.5445, "MEAN_ANOMALY": 143.1304, "EPHEMERIS_TYPE": 0, "CLASSIFICATION_TYPE": "U", "NORAD_CAT_ID": 66798, "ELEMENT_SET_NO": 999, "REV_AT_EPOCH": 447, "BSTAR": 0.00095753, "MEAN_MOTION_DOT": 0.00056116, "MEAN_MOTION_DDOT": 0}, "tle": {"line1": "1 66798U 25278H   25357.16668980  .00056116  00000+0  95753-3 0  9996", "line2": "2 66798  42.9996 189.2166 0002076 262.5445 143.1304 15.50518579  4470"}}, "geometry": {"type": "Point", "coordinates": [-164.9167970181391, 7.129554824262998]}}]}